SL-3 R/B                
1 19046U 88032B   19024.96376046  .00000089  00000-0  10998-4 0  9996
2 19046  97.4567  62.1761 0039659 137.5296 222.9010 15.02538486660457
SL-16 R/B               
1 19120U 88039B   19024.52092337 -.00000077  00000-0 -13631-4 0  9992
2 19120  71.0144 166.0132 0021732   3.1205 357.0052 14.19193856589301
COSMOS 1953             
1 19210U 88050A   19024.90882634  .00000789  00000-0  52437-4 0  9999
2 19210  82.5163 184.3124 0014795  60.8459 299.4247 15.05698388644982
SL-8 R/B                
1 19257U 88053B   19024.93628223 -.00000099  00000-0 -24202-4 0  9993
2 19257  74.0462 217.8052 0021024 320.8219 143.4218 14.37425578602791
COSMOS 1975             
1 19573U 88093A   19024.84718929  .00000804  00000-0  55037-4 0  9993
2 19573  82.5215 137.6830 0015830  99.1083 261.1935 15.04611800626877
SL-14 R/B               
1 19574U 88093B   19024.91228035  .00000086  00000-0  75959-5 0  9994
2 19574  82.5340 316.4881 0021257 346.2966  78.9887 14.83287100615333
SL-16 R/B               
1 19650U 88102B   19024.93273629  .00000161  00000-0  10612-3 0  9998
2 19650  70.9966 221.3168 0013993   0.9437 359.1709 14.15777076558761
INTERCOSMOS 24          
1 20261U 89080A   19024.95790620  .00000239  00000-0  66092-4 0  9991
2 20261  82.6027 349.9518 1203240 183.3777 175.8621 12.56034898340031
SL-14 R/B               
1 20262U 89080C   19024.60111048  .00000035  00000-0  59581-5 0  9995
2 20262  82.5918  40.5049 1237055 359.6863   0.3323 12.48910792335344
DELTA 1 R/B             
1 20323U 89089B   19024.70073999  .00000034  00000-0  17912-4 0  9995
2 20323  97.0830 248.0880 0072713  36.8946 323.7222 14.48287263519084
DELTA 2 R/B(1)          
1 20453U 90008B   19024.47404410  .00001301  00000-0  76187-4 0  9999
2 20453  35.6260  21.4151 0283814  10.5469 350.1042 14.84668833535349
COSMOS 2058             
1 20465U 90010A   19024.62301844  .00000153  00000-0  10647-4 0  9992
2 20465  82.4878  43.8640 0016926 116.6739 243.6219 14.97820070552005
SL-14 R/B               
1 20466U 90010B   19024.90297108  .00000067  00000-0  55573-5 0  9993
2 20466  82.5030 183.6093 0019826 207.6774 152.3387 14.81344981543292
SL-14 R/B               
1 20511U 90018B   19024.84555278  .00000090  00000-0  88164-5 0  9998
2 20511  82.5246 127.7791 0017218 354.3928 145.0509 14.80002084537731
HST                     
1 20580U 90037B   19024.60527848  .00000427  00000-0  15111-4 0  9996
2 20580  28.4700  91.2698 0002778   8.4900 122.9512 15.09162227378867
SL-16 R/B               
1 20625U 90046B   19024.89754704  .00000043  00000-0  46952-4 0  9991
2 20625  70.9992 357.7235 0016287 292.0284  67.9108 14.14634215480550
COSMOS 2084             
1 20663U 90055A   19024.62117290 -.00000027  00000-0  15975-4 0  9991
2 20663  62.7938  70.3561 0096930 150.0193 210.6502 14.91934004547289
SL-6 R/B(2)             
1 20666U 90055D   19024.96365868 -.00000082  00000-0  10579-4 0  9993
2 20666  62.7868 346.7241 0063720 175.5105 184.6575 14.92208285549261
SL-8 R/B                
1 20775U 90078B   19024.88431095  .00002271  00000-0  11161-3 0  9994
2 20775  82.9284 286.3524 0579202 331.7045  25.3761 14.32854409432737
SL-8 R/B                
1 21088U 91006B   19024.92029084  .00000044  00000-0  28897-4 0  9991
2 21088  82.9442 304.0448 0023688 115.9312 299.6341 13.77108177406086
OKEAN-3                 
1 21397U 91039A   19024.90129897  .00000159  00000-0  12795-4 0  9998
2 21397  82.5234 300.9708 0019440  75.7783 284.5595 14.92757634476249
COSMOS 2151             
1 21422U 91042A   19024.64995465  .00000164  00000-0  13572-4 0  9994
2 21422  82.4987  48.2771 0015407 131.8725 228.3812 14.92016699474866
SL-14 R/B               
1 21423U 91042B   19024.88199175  .00000078  00000-0  72678-5 0  9992
2 21423  82.4956 133.1486 0018880 125.9616 234.3352 14.79753127468308
ERS-1                   
1 21574U 91050A   19024.91205382  .00000013  00000-0  18982-4 0  9996
2 21574  98.5328 335.1359 0033203   6.5329 353.6284 14.37678028441906
ARIANE 40 R/B           
1 21610U 91050F   19024.85499098 -.00000007  00000-0  11615-4 0  9999
2 21610  98.5283  92.3848 0003015   9.2293 121.6436 14.40861555444313
INTERCOSMOS 25          
1 21819U 91086A   19024.72568810  .00000067  00000-0  13904-4 0  9992
2 21819  82.5851  71.4641 1516667 277.9812  65.2425 12.04927650182903
SL-14 R/B               
1 21820U 91086B   19024.87447964  .00000110  00000-0  14676-4 0  9992
2 21820  82.5628 132.3780 1576301 129.2476 245.9482 11.93430416176767
SL-8 R/B                
1 21876U 92008B   19024.67073740  .00000076  00000-0  63087-4 0  9994
2 21876  82.9251  41.3155 0034415 194.8268 303.6386 13.75632606351789
SL-8 R/B                
1 21938U 92020B   19024.89257874  .00000015  00000-0 -26423-6 0  9992
2 21938  82.9304 284.8787 0029310 357.8665  49.9053 13.75263089343633
SL-16 R/B               
1 22220U 92076B   19024.90899586  .00000006  00000-0  27169-4 0  9997
2 22220  70.9995 264.1999 0010556 101.0563 340.0592 14.16441851353854
SL-16 R/B               
1 22285U 92093B   19024.55019232  .00000056  00000-0  53576-4 0  9996
2 22285  71.0221  62.2211 0006248 298.5444  61.5049 14.15032917345206
COSMOS 2228             
1 22286U 92094A   19024.94695271  .00000164  00000-0  15096-4 0  9999
2 22286  82.5203 180.6404 0020496 337.0200  23.0098 14.88007752388677
SL-16 R/B               
1 22566U 93016B   19024.90283194 -.00000292  00000-0 -12616-3 0  9996
2 22566  71.0072 275.3538 0012098 311.5799  48.4285 14.14957416334258
COSMOS 2242             
1 22626U 93024A   19024.94342770  .00000145  00000-0  13072-4 0  9995
2 22626  82.5204 208.5563 0018361 337.1503  22.8895 14.87869603393091
SL-16 R/B               
1 22803U 93059B   19024.79679895  .00000206  00000-0  12638-3 0  9998
2 22803  70.9907  93.2953 0018662 218.3111 141.6687 14.16802024311376
ARIANE 40 R/B           
1 22830U 93061H   19024.94599404 -.00000055  00000-0 -35067-5 0  9992
2 22830  98.8349  62.3466 0011077  19.1996 340.9602 14.31430351321933
COSMOS 2278             
1 23087U 94023A   19024.89828359  .00000110  00000-0  83103-4 0  9997
2 23087  71.0526 212.7010 0007812  26.5731 333.5790 14.13786959277175
SL-16 R/B               
1 23088U 94023B   19024.73503666 -.00000076  00000-0 -14616-4 0  9998
2 23088  71.0015 130.9712 0005757 282.0653  77.9824 14.14674135278493
SL-16 R/B               
1 23343U 94074B   19024.80155875 -.00000004  00000-0  68567-5 0  9996
2 23343  98.0748  74.9835 0006753   1.7775 130.1900 14.76762100303191
SL-16 R/B               
1 23405U 94077B   19024.65828375 -.00000221  00000-0 -89066-4 0  9991
2 23405  70.9815  62.3409 0002753 206.1180 153.9804 14.15204354248233
ERS-2                   
1 23560U 95021A   19024.83682454  .00000937  00000-0  44578-4 0  9990
2 23560  98.5100 105.7833 0004752 106.7890 253.3865 15.22251311264565
ARIANE 40+ R/B          
1 23561U 95021B   19024.96039031  .00000009  00000-0  18354-4 0  9995
2 23561  98.7798  49.6034 0006291 330.8068  88.5331 14.37905555245350
SL-16 R/B               
1 23705U 95058B   19024.94078238 -.00000271  00000-0 -11523-3 0  9998
2 23705  71.0201 237.9738 0010626 131.1702 229.0339 14.15120345199899
SL-16 R/B               
1 24298U 96051B   19024.89336543 -.00000062  00000-0 -69432-5 0  9992
2 24298  70.8250 265.1357 0013539  21.2646 338.9034 14.12391723154407
ORBVIEW 2 (SEASTAR)     
1 24883U 97037A   19024.87404830  .00000044  00000-0  31692-4 0  9994
2 24883  98.5737 136.8967 0002870 150.1853 209.9495 14.33487446135704
SL-16 R/B               
1 25400U 98043G   19024.89907808 -.00000015  00000-0  11900-4 0  9992
2 25400  98.5590 326.6699 0010431  27.3016 332.8710 14.25436710 68425
SL-16 R/B               
1 25407U 98045B   19024.93170913  .00000229  00000-0  14102-3 0  9997
2 25407  71.0102 248.3877 0006813  16.6826 343.4520 14.15783039 58967
ISS (ZARYA)             
1 25544U 98067A   19025.73192638  .00001501  00000-0  30896-4 0  9993
2 25544  51.6426 349.7284 0004696 313.7014 107.7261 15.53175520153127
SL-8 R/B                
1 25723U 99022C   19024.86180584  .00007984  00000-0  91596-4 0  9999
2 25723  48.4134 258.1899 0006790 355.7616   4.3274 15.62950363 97693
CZ-4B R/B               
1 25732U 99025C   19024.97135809 -.00000045  00000-0  26650-6 0  9997
2 25732  98.9862  43.8868 0036745 220.4211 196.7958 14.17658922 19636
OKEAN-O                 
1 25860U 99039A   19024.93523880  .00000006  00000-0  85742-5 0  9992
2 25860  98.2254  29.5256 0001811  80.8906 279.2508 14.76586731 50325
SL-16 R/B               
1 25861U 99039B   19024.94237568  .00000000  00000-0  75567-5 0  9997
2 25861  98.1764  12.8941 0015652 359.4747  52.9705 14.78513880 52338
TERRA                   
1 25994U 99068A   19025.19199978  .00000130  00000-0  38802-4 0  9990
2 25994  98.2071 101.8316 0001538 107.1942 252.9417 14.57117277 16154
ENVISAT                 
1 27386U 02009A   19024.99618958 -.00000020  00000-0  70331-5 0  9990
2 27386  98.1628  53.3229 0001148  89.6186 295.0873 14.37939682885409
IDEFIX & ARIANE 42P R/B 
1 27422U 02021B   19024.95417637 -.00000041  00000-0  47977-8 0  9998
2 27422  98.2824   4.2145 0011266 301.4484  58.5597 14.29267412872383
AQUA                    
1 27424U 02022A   19024.88592881  .00000077  00000-0  27136-4 0  9997
2 27424  98.2199 327.8236 0002699 102.5646 351.2414 14.57105480889662
CZ-4B R/B               
1 27432U 02024C   19024.96268391 -.00000044  00000-0  75045-6 0  9992
2 27432  99.0578  14.2304 0050576 173.0007 244.8405 14.14074680861640
MIDORI II (ADEOS-II)    
1 27597U 02056A   19024.86354501  .00000019  00000-0  24831-4 0  9993
2 27597  98.4536 342.2390 0002027  66.6665 293.4730 14.27382089839110
H-2A R/B                
1 27601U 02056E   19024.13660400  .00000027  00000-0  24762-4 0  9999
2 27601  98.2983  79.1719 0071959 357.0428  22.0068 14.31874880841657
